{
  "type": "FeatureCollection",
  "features": [
    {
      "type": "Feature",
      "properties": {
        "norad_id": 33376,
        "name": "GALAXY 19 (G-19)",
        "group": "intelsat",
        "lat": 0.03459009008090993,
        "lon": 58.28860601857203,
        "alt_km": 35797.45581702461,
        "timestamp": "2025-12-11T05:00:25.978713+00:00",
        "meta_object_name": "GALAXY 19 (G-19)",
        "meta_object_id": "2008-045A",
        "meta_epoch": "2025-12-10T19:55:46.870176",
        "meta_mean_motion": 1.002697,
        "meta_eccentricity": 0.00027301,
        "meta_inclination": 0.0169,
        "meta_ra_of_asc_node": 341.0168,
        "meta_arg_of_pericenter": 278.3964,
        "meta_mean_anomaly": 22.335,
        "meta_ephemeris_type": 0,
        "meta_classification_type": "U",
        "meta_norad_cat_id": 33376,
        "meta_element_set_no": 999,
        "meta_rev_at_epoch": 6301,
        "meta_bstar": 0,
        "meta_mean_motion_dot": 0,
        "meta_mean_motion_ddot": 0,
        "tle_line1": "1 33376U 08045A   25344.83040359  .00000000  00000+0  00000+0 0  9997",
        "tle_line2": "2 33376   0.0169 341.0168 0002730 278.3964  22.3350  1.00269700 63014"
      },
      "geometry": {
        "type": "Point",
        "coordinates": [
          58.28860601857203,
          0.03459009008090993
        ]
      }
    },
    {
      "type": "Feature",
      "properties": {
        "norad_id": 35493,
        "name": "FM-5",
        "group": "intelsat",
        "lat": 0.024802394681433887,
        "lon": 69.1264017891514,
        "alt_km": 35786.99859903461,
        "timestamp": "2025-12-11T05:00:25.978724+00:00",
        "meta_object_name": "FM-5",
        "meta_object_id": "2009-034A",
        "meta_epoch": "2025-12-10T14:50:41.125920",
        "meta_mean_motion": 1.00270648,
        "meta_eccentricity": 5.746e-05,
        "meta_inclination": 0.017,
        "meta_ra_of_asc_node": 291.5558,
        "meta_arg_of_pericenter": 240.9875,
        "meta_mean_anomaly": 43.5772,
        "meta_ephemeris_type": 0,
        "meta_classification_type": "U",
        "meta_norad_cat_id": 35493,
        "meta_element_set_no": 999,
        "meta_rev_at_epoch": 4475,
        "meta_bstar": 0,
        "meta_mean_motion_dot": -1.96e-06,
        "meta_mean_motion_ddot": 0,
        "tle_line1": "1 35493U 09034A   25344.61853155 -.00000196  00000+0  00000+0 0  9997",
        "tle_line2": "2 35493   0.0170 291.5558 0000574 240.9875  43.5772  1.00270648 44756"
      },
      "geometry": {
        "type": "Point",
        "coordinates": [
          69.1264017891514,
          0.024802394681433887
        ]
      }
    },
    {
      "type": "Feature",
      "properties": {
        "norad_id": 36097,
        "name": "INTELSAT 14 (IS-14)",
        "group": "intelsat",
        "lat": 0.023152402168635598,
        "lon": 110.26383087584469,
        "alt_km": 35796.880874155075,
        "timestamp": "2025-12-11T05:00:25.978736+00:00",
        "meta_object_name": "INTELSAT 14 (IS-14)",
        "meta_object_id": "2009-064A",
        "meta_epoch": "2025-12-10T20:10:37.947072",
        "meta_mean_motion": 1.00270064,
        "meta_eccentricity": 0.00026216,
        "meta_inclination": 0.0094,
        "meta_ra_of_asc_node": 15.2925,
        "meta_arg_of_pericenter": 252.9462,
        "meta_mean_anomaly": 69.2298,
        "meta_ephemeris_type": 0,
        "meta_classification_type": "U",
        "meta_norad_cat_id": 36097,
        "meta_element_set_no": 999,
        "meta_rev_at_epoch": 5871,
        "meta_bstar": 0,
        "meta_mean_motion_dot": -2.69e-06,
        "meta_mean_motion_ddot": 0,
        "tle_line1": "1 36097U 09064A   25344.84071698 -.00000269  00000+0  00000+0 0  9991",
        "tle_line2": "2 36097   0.0094  15.2925 0002621 252.9462  69.2298  1.00270064 58712"
      },
      "geometry": {
        "type": "Point",
        "coordinates": [
          110.26383087584469,
          0.023152402168635598
        ]
      }
    },
    {
      "type": "Feature",
      "properties": {
        "norad_id": 36106,
        "name": "INTELSAT 15 (IS-15)",
        "group": "intelsat",
        "lat": -0.03266001552831682,
        "lon": -119.59033053321409,
        "alt_km": 35777.41128893259,
        "timestamp": "2025-12-11T05:00:25.978748+00:00",
        "meta_object_name": "INTELSAT 15 (IS-15)",
        "meta_object_id": "2009-067A",
        "meta_epoch": "2025-12-10T21:22:40.311840",
        "meta_mean_motion": 1.00270826,
        "meta_eccentricity": 0.00023886,
        "meta_inclination": 0.0246,
        "meta_ra_of_asc_node": 289.0352,
        "meta_arg_of_pericenter": 338.9577,
        "meta_mean_anomaly": 217.6808,
        "meta_ephemeris_type": 0,
        "meta_classification_type": "U",
        "meta_norad_cat_id": 36106,
        "meta_element_set_no": 999,
        "meta_rev_at_epoch": 3934,
        "meta_bstar": 0,
        "meta_mean_motion_dot": -1.8e-06,
        "meta_mean_motion_ddot": 0,
        "tle_line1": "1 36106U 09067A   25344.89074435 -.00000180  00000+0  00000+0 0  9994",
        "tle_line2": "2 36106   0.0246 289.0352 0002388 338.9577 217.6808  1.00270826 39349"
      },
      "geometry": {
        "type": "Point",
        "coordinates": [
          -119.59033053321409,
          -0.03266001552831682
        ]
      }
    },
    {
      "type": "Feature",
      "properties": {
        "norad_id": 36131,
        "name": "DIRECTV 12",
        "group": "intelsat",
        "lat": -0.01682409379850319,
        "lon": 52.55803193787395,
        "alt_km": 35786.17483453461,
        "timestamp": "2025-12-11T05:00:25.978759+00:00",
        "meta_object_name": "DIRECTV 12",
        "meta_object_id": "2009-075A",
        "meta_epoch": "2025-12-10T19:53:54.549312",
        "meta_mean_motion": 1.0026974,
        "meta_eccentricity": 3.207e-05,
        "meta_inclination": 0.0398,
        "meta_ra_of_asc_node": 148.5346,
        "meta_arg_of_pericenter": 195.3833,
        "meta_mean_anomaly": 291.6382,
        "meta_ephemeris_type": 0,
        "meta_classification_type": "U",
        "meta_norad_cat_id": 36131,
        "meta_element_set_no": 999,
        "meta_rev_at_epoch": 4466,
        "meta_bstar": 0,
        "meta_mean_motion_dot": -9.8e-07,
        "meta_mean_motion_ddot": 0,
        "tle_line1": "1 36131U 09075A   25344.82910358 -.00000098  00000+0  00000+0 0  9995",
        "tle_line2": "2 36131   0.0398 148.5346 0000320 195.3833 291.6382  1.00269740 44664"
      },
      "geometry": {
        "type": "Point",
        "coordinates": [
          52.55803193787395,
          -0.01682409379850319
        ]
      }
    },
    {
      "type": "Feature",
      "properties": {
        "norad_id": 36397,
        "name": "INTELSAT 16 (IS-16)",
        "group": "intelsat",
        "lat": 0.026385939985729988,
        "lon": 79.07939964389985,
        "alt_km": 35795.161472504544,
        "timestamp": "2025-12-11T05:00:25.978771+00:00",
        "meta_object_name": "INTELSAT 16 (IS-16)",
        "meta_object_id": "2010-006A",
        "meta_epoch": "2025-12-10T20:01:38.807616",
        "meta_mean_motion": 1.00272427,
        "meta_eccentricity": 0.00021803,
        "meta_inclination": 0.0117,
        "meta_ra_of_asc_node": 318.0575,
        "meta_arg_of_pericenter": 302.077,
        "meta_mean_anomaly": 43.8821,
        "meta_ephemeris_type": 0,
        "meta_classification_type": "U",
        "meta_norad_cat_id": 36397,
        "meta_element_set_no": 999,
        "meta_rev_at_epoch": 5776,
        "meta_bstar": 0,
        "meta_mean_motion_dot": -2.4e-06,
        "meta_mean_motion_ddot": 0,
        "tle_line1": "1 36397U 10006A   25344.83447694 -.00000240  00000+0  00000+0 0  9993",
        "tle_line2": "2 36397   0.0117 318.0575 0002180 302.0770  43.8821  1.00272427 57764"
      },
      "geometry": {
        "type": "Point",
        "coordinates": [
          79.07939964389985,
          0.026385939985729988
        ]
      }
    },
    {
      "type": "Feature",
      "properties": {
        "norad_id": 37185,
        "name": "XM-5",
        "group": "intelsat",
        "lat": 0.0609103087823161,
        "lon": 40.055401961306025,
        "alt_km": 35788.82703599586,
        "timestamp": "2025-12-11T05:00:25.978782+00:00",
        "meta_object_name": "XM-5",
        "meta_object_id": "2010-053A",
        "meta_epoch": "2025-12-10T16:25:03.748224",
        "meta_mean_motion": 1.00269453,
        "meta_eccentricity": 0.00015102,
        "meta_inclination": 0.0605,
        "meta_ra_of_asc_node": 272.7842,
        "meta_arg_of_pericenter": 236.8778,
        "meta_mean_anomaly": 61.0581,
        "meta_ephemeris_type": 0,
        "meta_classification_type": "U",
        "meta_norad_cat_id": 37185,
        "meta_element_set_no": 999,
        "meta_rev_at_epoch": 5559,
        "meta_bstar": 0,
        "meta_mean_motion_dot": -1.8e-07,
        "meta_mean_motion_ddot": 0,
        "tle_line1": "1 37185U 10053A   25344.68407116 -.00000018  00000+0  00000+0 0  9992",
        "tle_line2": "2 37185   0.0605 272.7842 0001510 236.8778  61.0581  1.00269453 55592"
      },
      "geometry": {
        "type": "Point",
        "coordinates": [
          40.055401961306025,
          0.0609103087823161
        ]
      }
    }
  ]
}